VANGUARD 2              
1 00011U 59001A   24124.48778150  .00002264  00000+0  11914-2 0  9991
2 00011  32.8690 132.7798 1456413 334.7671  18.8155 11.88185012443198
